<?xml version="1.0" encoding="UTF-8"?>
<ndm xmlns:xsi="http://www.w3.org/2001/XMLSchema-instance" xsi:noNamespaceSchemaLocation="https://sanaregistry.org/r/ndmxml_unqualified/ndmxml-2.0.0-master-2.0.xsd">
<omm id="CCSDS_OMM_VERS" version="2.0">
<header><CREATION_DATE/><ORIGINATOR/></header><body><segment><metadata><OBJECT_NAME>EUTELSAT 7A</OBJECT_NAME><OBJECT_ID>2004-008A</OBJECT_ID><CENTER_NAME>EARTH</CENTER_NAME><REF_FRAME>TEME</REF_FRAME><TIME_SYSTEM>UTC</TIME_SYSTEM><MEAN_ELEMENT_THEORY>SGP4</MEAN_ELEMENT_THEORY></metadata><data><meanElements><EPOCH>2025-11-08T09:35:18.102048</EPOCH><MEAN_MOTION>1.00269397</MEAN_MOTION><ECCENTRICITY>.000145</ECCENTRICITY><INCLINATION>5.2688</INCLINATION><RA_OF_ASC_NODE>74.6349</RA_OF_ASC_NODE><ARG_OF_PERICENTER>186.1576</ARG_OF_PERICENTER><MEAN_ANOMALY>151.6859</MEAN_ANOMALY></meanElements><tleParameters><EPHEMERIS_TYPE>0</EPHEMERIS_TYPE><CLASSIFICATION_TYPE>U</CLASSIFICATION_TYPE><NORAD_CAT_ID>28187</NORAD_CAT_ID><ELEMENT_SET_NO>999</ELEMENT_SET_NO><REV_AT_EPOCH>7913</REV_AT_EPOCH><BSTAR>0</BSTAR><MEAN_MOTION_DOT>.105E-5</MEAN_MOTION_DOT><MEAN_MOTION_DDOT>0</MEAN_MOTION_DDOT></tleParameters></data></segment></body></omm>
<omm id="CCSDS_OMM_VERS" version="2.0">
<header><CREATION_DATE/><ORIGINATOR/></header><body><segment><metadata><OBJECT_NAME>EUTELSAT 174A</OBJECT_NAME><OBJECT_ID>2005-052A</OBJECT_ID><CENTER_NAME>EARTH</CENTER_NAME><REF_FRAME>TEME</REF_FRAME><TIME_SYSTEM>UTC</TIME_SYSTEM><MEAN_ELEMENT_THEORY>SGP4</MEAN_ELEMENT_THEORY></metadata><data><meanElements><EPOCH>2025-11-08T11:12:21.696192</EPOCH><MEAN_MOTION>1.00271764</MEAN_MOTION><ECCENTRICITY>.0006684</ECCENTRICITY><INCLINATION>3.6591</INCLINATION><RA_OF_ASC_NODE>79.2498</RA_OF_ASC_NODE><ARG_OF_PERICENTER>151.9087</ARG_OF_PERICENTER><MEAN_ANOMALY>158.8512</MEAN_ANOMALY></meanElements><tleParameters><EPHEMERIS_TYPE>0</EPHEMERIS_TYPE><CLASSIFICATION_TYPE>U</CLASSIFICATION_TYPE><NORAD_CAT_ID>28924</NORAD_CAT_ID><ELEMENT_SET_NO>999</ELEMENT_SET_NO><REV_AT_EPOCH>5011</REV_AT_EPOCH><BSTAR>0</BSTAR><MEAN_MOTION_DOT>.12E-6</MEAN_MOTION_DOT><MEAN_MOTION_DDOT>0</MEAN_MOTION_DDOT></tleParameters></data></segment></body></omm>
<omm id="CCSDS_OMM_VERS" version="2.0">
<header><CREATION_DATE/><ORIGINATOR/></header><body><segment><metadata><OBJECT_NAME>EUTELSAT HOTBIRD 13B</OBJECT_NAME><OBJECT_ID>2006-032A</OBJECT_ID><CENTER_NAME>EARTH</CENTER_NAME><REF_FRAME>TEME</REF_FRAME><TIME_SYSTEM>UTC</TIME_SYSTEM><MEAN_ELEMENT_THEORY>SGP4</MEAN_ELEMENT_THEORY></metadata><data><meanElements><EPOCH>2025-11-08T11:11:44.435328</EPOCH><MEAN_MOTION>1.00273306</MEAN_MOTION><ECCENTRICITY>.0003912</ECCENTRICITY><INCLINATION>1.0892</INCLINATION><RA_OF_ASC_NODE>84.6428</RA_OF_ASC_NODE><ARG_OF_PERICENTER>144.6686</ARG_OF_PERICENTER><MEAN_ANOMALY>19.6370</MEAN_ANOMALY></meanElements><tleParameters><EPHEMERIS_TYPE>0</EPHEMERIS_TYPE><CLASSIFICATION_TYPE>U</CLASSIFICATION_TYPE><NORAD_CAT_ID>29270</NORAD_CAT_ID><ELEMENT_SET_NO>999</ELEMENT_SET_NO><REV_AT_EPOCH>4509</REV_AT_EPOCH><BSTAR>0</BSTAR><MEAN_MOTION_DOT>.158E-5</MEAN_MOTION_DOT><MEAN_MOTION_DDOT>0</MEAN_MOTION_DDOT></tleParameters></data></segment></body></omm>
<omm id="CCSDS_OMM_VERS" version="2.0">
<header><CREATION_DATE/><ORIGINATOR/></header><body><segment><metadata><OBJECT_NAME>EUTELSAT HOTBIRD 13C</OBJECT_NAME><OBJECT_ID>2008-065A</OBJECT_ID><CENTER_NAME>EARTH</CENTER_NAME><REF_FRAME>TEME</REF_FRAME><TIME_SYSTEM>UTC</TIME_SYSTEM><MEAN_ELEMENT_THEORY>SGP4</MEAN_ELEMENT_THEORY></metadata><data><meanElements><EPOCH>2025-10-29T07:49:18.648192</EPOCH><MEAN_MOTION>1.00271861</MEAN_MOTION><ECCENTRICITY>.0006142</ECCENTRICITY><INCLINATION>2.3523</INCLINATION><RA_OF_ASC_NODE>81.9104</RA_OF_ASC_NODE><ARG_OF_PERICENTER>154.2398</ARG_OF_PERICENTER><MEAN_ANOMALY>266.6285</MEAN_ANOMALY></meanElements><tleParameters><EPHEMERIS_TYPE>0</EPHEMERIS_TYPE><CLASSIFICATION_TYPE>U</CLASSIFICATION_TYPE><NORAD_CAT_ID>33459</NORAD_CAT_ID><ELEMENT_SET_NO>999</ELEMENT_SET_NO><REV_AT_EPOCH>4503</REV_AT_EPOCH><BSTAR>0</BSTAR><MEAN_MOTION_DOT>-.88E-6</MEAN_MOTION_DOT><MEAN_MOTION_DDOT>0</MEAN_MOTION_DDOT></tleParameters></data></segment></body></omm>
<omm id="CCSDS_OMM_VERS" version="2.0">
<header><CREATION_DATE/><ORIGINATOR/></header><body><segment><metadata><OBJECT_NAME>EUTELSAT 36B</OBJECT_NAME><OBJECT_ID>2009-065A</OBJECT_ID><CENTER_NAME>EARTH</CENTER_NAME><REF_FRAME>TEME</REF_FRAME><TIME_SYSTEM>UTC</TIME_SYSTEM><MEAN_ELEMENT_THEORY>SGP4</MEAN_ELEMENT_THEORY></metadata><data><meanElements><EPOCH>2025-11-08T11:16:51.443040</EPOCH><MEAN_MOTION>1.00269341</MEAN_MOTION><ECCENTRICITY>.0006379</ECCENTRICITY><INCLINATION>0.0461</INCLINATION><RA_OF_ASC_NODE>358.9496</RA_OF_ASC_NODE><ARG_OF_PERICENTER>232.7595</ARG_OF_PERICENTER><MEAN_ANOMALY>35.9275</MEAN_ANOMALY></meanElements><tleParameters><EPHEMERIS_TYPE>0</EPHEMERIS_TYPE><CLASSIFICATION_TYPE>U</CLASSIFICATION_TYPE><NORAD_CAT_ID>36101</NORAD_CAT_ID><ELEMENT_SET_NO>999</ELEMENT_SET_NO><REV_AT_EPOCH>5849</REV_AT_EPOCH><BSTAR>0</BSTAR><MEAN_MOTION_DOT>.114E-5</MEAN_MOTION_DOT><MEAN_MOTION_DDOT>0</MEAN_MOTION_DDOT></tleParameters></data></segment></body></omm>
<omm id="CCSDS_OMM_VERS" version="2.0">
<header><CREATION_DATE/><ORIGINATOR/></header><body><segment><metadata><OBJECT_NAME>EUTELSAT KA-SAT 9A</OBJECT_NAME><OBJECT_ID>2010-069A</OBJECT_ID><CENTER_NAME>EARTH</CENTER_NAME><REF_FRAME>TEME</REF_FRAME><TIME_SYSTEM>UTC</TIME_SYSTEM><MEAN_ELEMENT_THEORY>SGP4</MEAN_ELEMENT_THEORY></metadata><data><meanElements><EPOCH>2025-11-08T05:56:44.835360</EPOCH><MEAN_MOTION>1.00270151</MEAN_MOTION><ECCENTRICITY>.000245</ECCENTRICITY><INCLINATION>0.0617</INCLINATION><RA_OF_ASC_NODE>315.6114</RA_OF_ASC_NODE><ARG_OF_PERICENTER>222.6080</ARG_OF_PERICENTER><MEAN_ANOMALY>327.7423</MEAN_ANOMALY></meanElements><tleParameters><EPHEMERIS_TYPE>0</EPHEMERIS_TYPE><CLASSIFICATION_TYPE>U</CLASSIFICATION_TYPE><NORAD_CAT_ID>37258</NORAD_CAT_ID><ELEMENT_SET_NO>999</ELEMENT_SET_NO><REV_AT_EPOCH>4179</REV_AT_EPOCH><BSTAR>0</BSTAR><MEAN_MOTION_DOT>.65E-6</MEAN_MOTION_DOT><MEAN_MOTION_DDOT>0</MEAN_MOTION_DDOT></tleParameters></data></segment></body></omm>
<omm id="CCSDS_OMM_VERS" version="2.0">
<header><CREATION_DATE/><ORIGINATOR/></header><body><segment><metadata><OBJECT_NAME>EUTELSAT 7 WEST A</OBJECT_NAME><OBJECT_ID>2011-051A</OBJECT_ID><CENTER_NAME>EARTH</CENTER_NAME><REF_FRAME>TEME</REF_FRAME><TIME_SYSTEM>UTC</TIME_SYSTEM><MEAN_ELEMENT_THEORY>SGP4</MEAN_ELEMENT_THEORY></metadata><data><meanElements><EPOCH>2025-11-08T09:17:33.094176</EPOCH><MEAN_MOTION>1.00271748</MEAN_MOTION><ECCENTRICITY>.0006567</ECCENTRICITY><INCLINATION>0.0862</INCLINATION><RA_OF_ASC_NODE>40.9375</RA_OF_ASC_NODE><ARG_OF_PERICENTER>176.5733</ARG_OF_PERICENTER><MEAN_ANOMALY>322.4204</MEAN_ANOMALY></meanElements><tleParameters><EPHEMERIS_TYPE>0</EPHEMERIS_TYPE><CLASSIFICATION_TYPE>U</CLASSIFICATION_TYPE><NORAD_CAT_ID>37816</NORAD_CAT_ID><ELEMENT_SET_NO>999</ELEMENT_SET_NO><REV_AT_EPOCH>5166</REV_AT_EPOCH><BSTAR>0</BSTAR><MEAN_MOTION_DOT>-.58E-6</MEAN_MOTION_DOT><MEAN_MOTION_DDOT>0</MEAN_MOTION_DDOT></tleParameters></data></segment></body></omm>
<omm id="CCSDS_OMM_VERS" version="2.0">
<header><CREATION_DATE/><ORIGINATOR/></header><body><segment><metadata><OBJECT_NAME>EUTELSAT 16A</OBJECT_NAME><OBJECT_ID>2011-057A</OBJECT_ID><CENTER_NAME>EARTH</CENTER_NAME><REF_FRAME>TEME</REF_FRAME><TIME_SYSTEM>UTC</TIME_SYSTEM><MEAN_ELEMENT_THEORY>SGP4</MEAN_ELEMENT_THEORY></metadata><data><meanElements><EPOCH>2025-11-08T08:52:38.738784</EPOCH><MEAN_MOTION>1.00270136</MEAN_MOTION><ECCENTRICITY>.0005653</ECCENTRICITY><INCLINATION>0.0633</INCLINATION><RA_OF_ASC_NODE>356.4521</RA_OF_ASC_NODE><ARG_OF_PERICENTER>236.2647</ARG_OF_PERICENTER><MEAN_ANOMALY>324.2772</MEAN_ANOMALY></meanElements><tleParameters><EPHEMERIS_TYPE>0</EPHEMERIS_TYPE><CLASSIFICATION_TYPE>U</CLASSIFICATION_TYPE><NORAD_CAT_ID>37836</NORAD_CAT_ID><ELEMENT_SET_NO>999</ELEMENT_SET_NO><REV_AT_EPOCH>511</REV_AT_EPOCH><BSTAR>0</BSTAR><MEAN_MOTION_DOT>.106E-5</MEAN_MOTION_DOT><MEAN_MOTION_DDOT>0</MEAN_MOTION_DDOT></tleParameters></data></segment></body></omm>

</ndm>
