EUTELSAT 7A             
1 28187U 04008A   25312.39951507  .00000105  00000+0  00000+0 0  9994
2 28187   5.2688  74.6349 0001450 186.1576 151.6859  1.00269397 79136
EUTELSAT 174A           
1 28924U 05052A   25312.46691778  .00000012  00000+0  00000+0 0  9999
2 28924   3.6591  79.2498 0006684 151.9087 158.8512  1.00271764 50110
EUTELSAT HOTBIRD 13B    
1 29270U 06032A   25312.46648652  .00000158  00000+0  00000+0 0  9997
2 29270   1.0892  84.6428 0003912 144.6686  19.6370  1.00273306 45090
EUTELSAT HOTBIRD 13C    
1 33459U 08065A   25302.32591028 -.00000088  00000+0  00000+0 0  9990
2 33459   2.3523  81.9104 0006142 154.2398 266.6285  1.00271861 45032
EUTELSAT 36B            
1 36101U 09065A   25312.47003985  .00000114  00000+0  00000+0 0  9994
2 36101   0.0461 358.9496 0006379 232.7595  35.9275  1.00269341 58499
EUTELSAT KA-SAT 9A      
1 37258U 10069A   25312.24774115  .00000065  00000+0  00000+0 0  9994
2 37258   0.0617 315.6114 0002450 222.6080 327.7423  1.00270151 41799
EUTELSAT 7 WEST A       
1 37816U 11051A   25312.38718859 -.00000058  00000+0  00000+0 0  9997
2 37816   0.0862  40.9375 0006567 176.5733 322.4204  1.00271748 51662
EUTELSAT 16A            
1 37836U 11057A   25312.36989281  .00000106  00000+0  00000+0 0  9995
2 37836   0.0633 356.4521 0005653 236.2647 324.2772  1.00270136  5110
